TELSTAR 19V             
1 43562U 18059A   24099.14136668 -.00000288  00000+0  00000+0 0  9999
2 43562   0.0185 185.6058 0001346 263.1246  96.0329  1.00270199 21143
AEHF-4 (USA 288)        
1 43651U 18079A   24098.92565203 -.00000286  00000+0  00000+0 0  9994
2 43651   1.7678 329.4196 0003487  35.5205  97.4551  1.00270888 20272
SES-17                  
1 49332U 21095A   24098.92573906 -.00000280  00000+0  00000+0 0  9991
2 49332   0.0143 190.7152 0000907 173.7324  98.4013  1.00267856  9828
