<?xml version="1.0" encoding="utf-8"?>
<ndm xmlns:xsi="http://www.w3.org/2001/XMLSchema-instance" xsi:noNamespaceSchemaLocation="https://sanaregistry.org/r/ndmxml_unqualified/ndmxml-3.0.0-master-3.0.xsd"><omm id="CCSDS_OMM_VERS" version="3.0"><header><COMMENT>GENERATED VIA SPACE-TRACK.ORG API</COMMENT><CREATION_DATE>2024-04-08T04:14:55</CREATION_DATE><ORIGINATOR>18 SPCS</ORIGINATOR></header><body><segment><metadata><OBJECT_NAME>AEHF 4 (USA 288)</OBJECT_NAME><OBJECT_ID>2018-079A</OBJECT_ID><CENTER_NAME>EARTH</CENTER_NAME><REF_FRAME>TEME</REF_FRAME><TIME_SYSTEM>UTC</TIME_SYSTEM><MEAN_ELEMENT_THEORY>SGP4</MEAN_ELEMENT_THEORY></metadata><data><meanElements><EPOCH>2024-04-07T22:12:56.335392</EPOCH><MEAN_MOTION>1.00270888</MEAN_MOTION><ECCENTRICITY>0.00034870</ECCENTRICITY><INCLINATION>1.7678</INCLINATION><RA_OF_ASC_NODE>329.4196</RA_OF_ASC_NODE><ARG_OF_PERICENTER>35.5205</ARG_OF_PERICENTER><MEAN_ANOMALY>97.4551</MEAN_ANOMALY></meanElements><tleParameters><EPHEMERIS_TYPE>0</EPHEMERIS_TYPE><CLASSIFICATION_TYPE>U</CLASSIFICATION_TYPE><NORAD_CAT_ID>43651</NORAD_CAT_ID><ELEMENT_SET_NO>999</ELEMENT_SET_NO><REV_AT_EPOCH>2027</REV_AT_EPOCH><BSTAR>0.00000000000000</BSTAR><MEAN_MOTION_DOT>-0.00000286</MEAN_MOTION_DOT><MEAN_MOTION_DDOT>0.0000000000000</MEAN_MOTION_DDOT></tleParameters><userDefinedParameters><USER_DEFINED parameter="SEMIMAJOR_AXIS">42164.983</USER_DEFINED><USER_DEFINED parameter="PERIOD">1436.110</USER_DEFINED><USER_DEFINED parameter="APOAPSIS">35801.551</USER_DEFINED><USER_DEFINED parameter="PERIAPSIS">35772.145</USER_DEFINED><USER_DEFINED parameter="OBJECT_TYPE">PAYLOAD</USER_DEFINED><USER_DEFINED parameter="RCS_SIZE">LARGE</USER_DEFINED><USER_DEFINED parameter="COUNTRY_CODE">US</USER_DEFINED><USER_DEFINED parameter="LAUNCH_DATE">2018-10-17</USER_DEFINED><USER_DEFINED parameter="SITE">AFETR</USER_DEFINED><USER_DEFINED parameter="DECAY_DATE"/><USER_DEFINED parameter="FILE">4268432</USER_DEFINED><USER_DEFINED parameter="GP_ID">253982648</USER_DEFINED></userDefinedParameters></data></segment></body></omm><omm id="CCSDS_OMM_VERS" version="3.0"><header><COMMENT>GENERATED VIA SPACE-TRACK.ORG API</COMMENT><CREATION_DATE>2024-04-08T04:14:55</CREATION_DATE><ORIGINATOR>18 SPCS</ORIGINATOR></header><body><segment><metadata><OBJECT_NAME>SES 17</OBJECT_NAME><OBJECT_ID>2021-095A</OBJECT_ID><CENTER_NAME>EARTH</CENTER_NAME><REF_FRAME>TEME</REF_FRAME><TIME_SYSTEM>UTC</TIME_SYSTEM><MEAN_ELEMENT_THEORY>SGP4</MEAN_ELEMENT_THEORY></metadata><data><meanElements><EPOCH>2024-04-07T22:13:03.854784</EPOCH><MEAN_MOTION>1.00267856</MEAN_MOTION><ECCENTRICITY>0.00009070</ECCENTRICITY><INCLINATION>0.0143</INCLINATION><RA_OF_ASC_NODE>190.7152</RA_OF_ASC_NODE><ARG_OF_PERICENTER>173.7324</ARG_OF_PERICENTER><MEAN_ANOMALY>98.4013</MEAN_ANOMALY></meanElements><tleParameters><EPHEMERIS_TYPE>0</EPHEMERIS_TYPE><CLASSIFICATION_TYPE>U</CLASSIFICATION_TYPE><NORAD_CAT_ID>49332</NORAD_CAT_ID><ELEMENT_SET_NO>999</ELEMENT_SET_NO><REV_AT_EPOCH>982</REV_AT_EPOCH><BSTAR>0.00000000000000</BSTAR><MEAN_MOTION_DOT>-0.00000280</MEAN_MOTION_DOT><MEAN_MOTION_DDOT>0.0000000000000</MEAN_MOTION_DDOT></tleParameters><userDefinedParameters><USER_DEFINED parameter="SEMIMAJOR_AXIS">42165.833</USER_DEFINED><USER_DEFINED parameter="PERIOD">1436.153</USER_DEFINED><USER_DEFINED parameter="APOAPSIS">35791.523</USER_DEFINED><USER_DEFINED parameter="PERIAPSIS">35783.874</USER_DEFINED><USER_DEFINED parameter="OBJECT_TYPE">PAYLOAD</USER_DEFINED><USER_DEFINED parameter="RCS_SIZE">LARGE</USER_DEFINED><USER_DEFINED parameter="COUNTRY_CODE">SES</USER_DEFINED><USER_DEFINED parameter="LAUNCH_DATE">2021-10-24</USER_DEFINED><USER_DEFINED parameter="SITE">FRGUI</USER_DEFINED><USER_DEFINED parameter="DECAY_DATE"/><USER_DEFINED parameter="FILE">4268432</USER_DEFINED><USER_DEFINED parameter="GP_ID">253986589</USER_DEFINED></userDefinedParameters></data></segment></body></omm><omm id="CCSDS_OMM_VERS" version="3.0"><header><COMMENT>GENERATED VIA SPACE-TRACK.ORG API</COMMENT><CREATION_DATE>2024-04-08T06:26:17</CREATION_DATE><ORIGINATOR>18 SPCS</ORIGINATOR></header><body><segment><metadata><OBJECT_NAME>TELSTAR 19V</OBJECT_NAME><OBJECT_ID>2018-059A</OBJECT_ID><CENTER_NAME>EARTH</CENTER_NAME><REF_FRAME>TEME</REF_FRAME><TIME_SYSTEM>UTC</TIME_SYSTEM><MEAN_ELEMENT_THEORY>SGP4</MEAN_ELEMENT_THEORY></metadata><data><meanElements><EPOCH>2024-04-08T03:23:34.081152</EPOCH><MEAN_MOTION>1.00270199</MEAN_MOTION><ECCENTRICITY>0.00013460</ECCENTRICITY><INCLINATION>0.0185</INCLINATION><RA_OF_ASC_NODE>185.6058</RA_OF_ASC_NODE><ARG_OF_PERICENTER>263.1246</ARG_OF_PERICENTER><MEAN_ANOMALY>96.0329</MEAN_ANOMALY></meanElements><tleParameters><EPHEMERIS_TYPE>0</EPHEMERIS_TYPE><CLASSIFICATION_TYPE>U</CLASSIFICATION_TYPE><NORAD_CAT_ID>43562</NORAD_CAT_ID><ELEMENT_SET_NO>999</ELEMENT_SET_NO><REV_AT_EPOCH>2114</REV_AT_EPOCH><BSTAR>0.00000000000000</BSTAR><MEAN_MOTION_DOT>-0.00000288</MEAN_MOTION_DOT><MEAN_MOTION_DDOT>0.0000000000000</MEAN_MOTION_DDOT></tleParameters><userDefinedParameters><USER_DEFINED parameter="SEMIMAJOR_AXIS">42165.177</USER_DEFINED><USER_DEFINED parameter="PERIOD">1436.120</USER_DEFINED><USER_DEFINED parameter="APOAPSIS">35792.717</USER_DEFINED><USER_DEFINED parameter="PERIAPSIS">35781.366</USER_DEFINED><USER_DEFINED parameter="OBJECT_TYPE">PAYLOAD</USER_DEFINED><USER_DEFINED parameter="RCS_SIZE">LARGE</USER_DEFINED><USER_DEFINED parameter="COUNTRY_CODE">CA</USER_DEFINED><USER_DEFINED parameter="LAUNCH_DATE">2018-07-22</USER_DEFINED><USER_DEFINED parameter="SITE">AFETR</USER_DEFINED><USER_DEFINED parameter="DECAY_DATE"/><USER_DEFINED parameter="FILE">4268563</USER_DEFINED><USER_DEFINED parameter="GP_ID">253996070</USER_DEFINED></userDefinedParameters></data></segment></body></omm></ndm>
